start=new Date('2022-08-06T00:00:00.000Z').valueOf();
sats=[{"REF_FRAME":"TEME","SEMIMAJOR_AXIS":"6917.874","EPOCH":"2022-08-05T20:45:36.980640","CENTER_NAME":"EARTH","FILE":"3530042","RCS_SIZE":"LARGE","INCLINATION":"53.2194","APOAPSIS":"541.019","MEAN_MOTION_DDOT":"0.0000000000000","RA_OF_ASC_NODE":"28.1352","GP_ID":"209657898","TLE_LINE1":"1 50167U 21125M   22217.86501135  .00002088  00000-0  14926-3 0  9996","EPHEMERIS_TYPE":"0","LAUNCH_DATE":"2021-12-18","NORAD_CAT_ID":"50167","TIME_SYSTEM":"UTC","ARG_OF_PERICENTER":"76.4643","ELEMENT_SET_NO":"999","MEAN_MOTION_DOT":"0.00002088","PERIAPSIS":"538.459","OBJECT_TYPE":"PAYLOAD","ECCENTRICITY":"0.00018500","COUNTRY_CODE":"US","MEAN_ELEMENT_THEORY":"SGP4","MEAN_ANOMALY":"283.6555","TLE_LINE2":"2 50167  53.2194  28.1352 0001850  76.4643 283.6555 15.08842181 38418","PERIOD":"95.437","OBJECT_NAME":"STARLINK-3271","OBJECT_ID":"2021-125M","SITE":"AFWTR","DECAY_DATE":null,"REV_AT_EPOCH":"3841","MEAN_MOTION":"15.08842181","BSTAR":"0.00014926000000","CLASSIFICATION_TYPE":"U"},{"OBJECT_TYPE":"PAYLOAD","PERIAPSIS":"538.649","COUNTRY_CODE":"US","ECCENTRICITY":"0.00015840","MEAN_ELEMENT_THEORY":"SGP4","MEAN_ANOMALY":"299.3797","MEAN_MOTION_DOT":"0.00000798","MEAN_MOTION":"15.08840257","REV_AT_EPOCH":"3855","BSTAR":"0.00006825000000","CLASSIFICATION_TYPE":"U","OBJECT_NAME":"STARLINK-3296","OBJECT_ID":"2021-125N","TLE_LINE2":"2 50168  53.2184  18.3047 0001584  60.7353 299.3797 15.08840257 38557","PERIOD":"95.438","SITE":"AFWTR","DECAY_DATE":null,"RCS_SIZE":"LARGE","CENTER_NAME":"EARTH","FILE":"3530042","RA_OF_ASC_NODE":"18.3047","MEAN_MOTION_DDOT":"0.0000000000000","INCLINATION":"53.2184","APOAPSIS":"540.840","REF_FRAME":"TEME","SEMIMAJOR_AXIS":"6917.880","EPOCH":"2022-08-05T19:48:39.667104","ARG_OF_PERICENTER":"60.7353","ELEMENT_SET_NO":"999","GP_ID":"209659149","TLE_LINE1":"1 50168U 21125N   22217.82545911  .00000798  00000-0  68250-4 0  9999","EPHEMERIS_TYPE":"0","NORAD_CAT_ID":"50168","LAUNCH_DATE":"2021-12-18","TIME_SYSTEM":"UTC"},{"APOAPSIS":"540.656","INCLINATION":"53.2188","MEAN_MOTION_DDOT":"0.0000000000000","RA_OF_ASC_NODE":"18.1587","FILE":"3530030","CENTER_NAME":"EARTH","RCS_SIZE":"LARGE","EPOCH":"2022-08-05T20:41:35.935008","SEMIMAJOR_AXIS":"6917.766","REF_FRAME":"TEME","ELEMENT_SET_NO":"999","ARG_OF_PERICENTER":"94.9132","TIME_SYSTEM":"UTC","NORAD_CAT_ID":"50169","LAUNCH_DATE":"2021-12-18","EPHEMERIS_TYPE":"0","GP_ID":"209634758","TLE_LINE1":"1 50169U 21125P   22217.86222147  .00003536  00000-0  23993-3 0  9994","MEAN_ELEMENT_THEORY":"SGP4","MEAN_ANOMALY":"265.2030","ECCENTRICITY":"0.00014810","COUNTRY_CODE":"US","PERIAPSIS":"538.607","OBJECT_TYPE":"PAYLOAD","MEAN_MOTION_DOT":"0.00003536","CLASSIFICATION_TYPE":"U","BSTAR":"0.00023993000000","REV_AT_EPOCH":"3547","MEAN_MOTION":"15.08877277","DECAY_DATE":null,"SITE":"AFWTR","PERIOD":"95.435","TLE_LINE2":"2 50169  53.2188  18.1587 0001481  94.9132 265.2030 15.08877277 35471","OBJECT_ID":"2021-125P","OBJECT_NAME":"STARLINK-3301"},{"CLASSIFICATION_TYPE":"U","BSTAR":"0.00011652000000","MEAN_MOTION":"15.08838920","REV_AT_EPOCH":"3854","DECAY_DATE":null,"SITE":"AFWTR","PERIOD":"95.438","TLE_LINE2":"2 50170  53.2192  18.3349 0001660  54.1771 305.9376 15.08838920 38540","OBJECT_ID":"2021-125Q","OBJECT_NAME":"STARLINK-3245","MEAN_ELEMENT_THEORY":"SGP4","MEAN_ANOMALY":"305.9376","ECCENTRICITY":"0.00016600","COUNTRY_CODE":"US","PERIAPSIS":"538.600","OBJECT_TYPE":"PAYLOAD","MEAN_MOTION_DOT":"0.00001567","ELEMENT_SET_NO":"999","ARG_OF_PERICENTER":"54.1771","TIME_SYSTEM":"UTC","NORAD_CAT_ID":"50170","LAUNCH_DATE":"2021-12-18","EPHEMERIS_TYPE":"0","GP_ID":"209657649","TLE_LINE1":"1 50170U 21125Q   22217.81808931  .00001567  00000-0  11652-3 0  9993","APOAPSIS":"540.897","INCLINATION":"53.2192","MEAN_MOTION_DDOT":"0.0000000000000","RA_OF_ASC_NODE":"18.3349","FILE":"3530042","CENTER_NAME":"EARTH","RCS_SIZE":"LARGE","EPOCH":"2022-08-05T19:38:02.916384","SEMIMAJOR_AXIS":"6917.884","REF_FRAME":"TEME"},{"BSTAR":"0.00010248000000","CLASSIFICATION_TYPE":"U","REV_AT_EPOCH":"3855","MEAN_MOTION":"15.08840671","SITE":"AFWTR","DECAY_DATE":null,"OBJECT_ID":"2021-125R","OBJECT_NAME":"STARLINK-3286","TLE_LINE2":"2 50171  53.2193  18.2733 0001797  57.9252 302.1915 15.08840671 38559","PERIOD":"95.438","ECCENTRICITY":"0.00017970","COUNTRY_CODE":"US","MEAN_ELEMENT_THEORY":"SGP4","MEAN_ANOMALY":"302.1915","OBJECT_TYPE":"PAYLOAD","PERIAPSIS":"538.500","MEAN_MOTION_DOT":"0.00001343","ELEMENT_SET_NO":"999","ARG_OF_PERICENTER":"57.9252","LAUNCH_DATE":"2021-12-18","NORAD_CAT_ID":"50171","TIME_SYSTEM":"UTC","GP_ID":"209658398","TLE_LINE1":"1 50171U 21125R   22217.83281026  .00001343  00000-0  10248-3 0  9998","EPHEMERIS_TYPE":"0","MEAN_MOTION_DDOT":"0.0000000000000","RA_OF_ASC_NODE":"18.2733","INCLINATION":"53.2193","APOAPSIS":"540.986","RCS_SIZE":"LARGE","FILE":"3530042","CENTER_NAME":"EARTH","SEMIMAJOR_AXIS":"6917.878","EPOCH":"2022-08-05T19:59:14.806464","REF_FRAME":"TEME"},{"REV_AT_EPOCH":"3807","MEAN_MOTION":"15.08845105","BSTAR":"0.00005109300000","CLASSIFICATION_TYPE":"U","OBJECT_ID":"2021-125S","OBJECT_NAME":"STARLINK-3287","TLE_LINE2":"2 50172  53.2179  18.0922 0001940  72.8833 287.2371 15.08845105 38076","PERIOD":"95.437","DECAY_DATE":null,"SITE":"AFWTR","OBJECT_TYPE":"PAYLOAD","PERIAPSIS":"538.388","COUNTRY_CODE":"US","ECCENTRICITY":"0.00019400","MEAN_ELEMENT_THEORY":"SGP4","MEAN_ANOMALY":"287.2371","MEAN_MOTION_DOT":"0.00000525","ARG_OF_PERICENTER":"72.8833","ELEMENT_SET_NO":"999","TLE_LINE1":"1 50172U 21125S   22217.87696727  .00000525  00000-0  51093-4 0  9996","GP_ID":"209634981","EPHEMERIS_TYPE":"0","NORAD_CAT_ID":"50172","LAUNCH_DATE":"2021-12-18","TIME_SYSTEM":"UTC","RCS_SIZE":"LARGE","CENTER_NAME":"EARTH","FILE":"3530030","MEAN_MOTION_DDOT":"0.0000000000000","RA_OF_ASC_NODE":"18.0922","INCLINATION":"53.2179","APOAPSIS":"541.072","REF_FRAME":"TEME","SEMIMAJOR_AXIS":"6917.865","EPOCH":"2022-08-05T21:02:49.972128"},{"GP_ID":"209659391","TLE_LINE1":"1 50173U 21125T   22217.63965549 -.00000286  00000-0  28150-6 0  9997","EPHEMERIS_TYPE":"0","NORAD_CAT_ID":"50173","LAUNCH_DATE":"2021-12-18","TIME_SYSTEM":"UTC","ARG_OF_PERICENTER":"116.5422","ELEMENT_SET_NO":"999","REF_FRAME":"TEME","SEMIMAJOR_AXIS":"6917.875","EPOCH":"2022-08-05T15:21:06.234336","RCS_SIZE":"LARGE","CENTER_NAME":"EARTH","FILE":"3530042","RA_OF_ASC_NODE":"9.1341","MEAN_MOTION_DDOT":"0.0000000000000","INCLINATION":"53.2233","APOAPSIS":"544.473","OBJECT_ID":"2021-125T","OBJECT_NAME":"STARLINK-3289","TLE_LINE2":"2 50173  53.2233   9.1341 0006842 116.5422 243.6273 15.08841675 38671","PERIOD":"95.437","SITE":"AFWTR","DECAY_DATE":null,"REV_AT_EPOCH":"3867","MEAN_MOTION":"15.08841675","BSTAR":"0.00000028150000","CLASSIFICATION_TYPE":"U","MEAN_MOTION_DOT":"-0.00000286","OBJECT_TYPE":"PAYLOAD","PERIAPSIS":"535.007","ECCENTRICITY":"0.00068420","COUNTRY_CODE":"US","MEAN_ANOMALY":"243.6273","MEAN_ELEMENT_THEORY":"SGP4"},{"LAUNCH_DATE":"2021-12-18","NORAD_CAT_ID":"50174","TIME_SYSTEM":"UTC","GP_ID":"209658149","TLE_LINE1":"1 50174U 21125U   22217.86593254 -.00000367  00000-0 -49836-5 0  9997","EPHEMERIS_TYPE":"0","ELEMENT_SET_NO":"999","ARG_OF_PERICENTER":"63.5362","SEMIMAJOR_AXIS":"6917.866","EPOCH":"2022-08-05T20:46:56.571456","REF_FRAME":"TEME","MEAN_MOTION_DDOT":"0.0000000000000","RA_OF_ASC_NODE":"18.1410","INCLINATION":"53.2188","APOAPSIS":"540.803","RCS_SIZE":"LARGE","CENTER_NAME":"EARTH","FILE":"3530042","SITE":"AFWTR","DECAY_DATE":null,"OBJECT_ID":"2021-125U","OBJECT_NAME":"STARLINK-3292","TLE_LINE2":"2 50174  53.2188  18.1410 0001550  63.5362 296.5789 15.08844636 38605","PERIOD":"95.437","BSTAR":"-0.00000498360000","CLASSIFICATION_TYPE":"U","MEAN_MOTION":"15.08844636","REV_AT_EPOCH":"3860","MEAN_MOTION_DOT":"-0.00000367","COUNTRY_CODE":"US","ECCENTRICITY":"0.00015500","MEAN_ELEMENT_THEORY":"SGP4","MEAN_ANOMALY":"296.5789","OBJECT_TYPE":"PAYLOAD","PERIAPSIS":"538.659"},{"LAUNCH_DATE":"2021-12-18","NORAD_CAT_ID":"50175","TIME_SYSTEM":"UTC","GP_ID":"209657899","TLE_LINE1":"1 50175U 21125V   22217.82178162  .00000913  00000-0  75424-4 0  9997","EPHEMERIS_TYPE":"0","ELEMENT_SET_NO":"999","ARG_OF_PERICENTER":"62.1385","SEMIMAJOR_AXIS":"6917.882","EPOCH":"2022-08-05T19:43:21.931968","REF_FRAME":"TEME","MEAN_MOTION_DDOT":"0.0000000000000","RA_OF_ASC_NODE":"18.3236","INCLINATION":"53.2187","APOAPSIS":"540.813","RCS_SIZE":"LARGE","CENTER_NAME":"EARTH","FILE":"3530042","DECAY_DATE":null,"SITE":"AFWTR","OBJECT_NAME":"STARLINK-3291","OBJECT_ID":"2021-125V","TLE_LINE2":"2 50175  53.2187  18.3236 0001541  62.1385 297.9764 15.08839538 38550","PERIOD":"95.438","BSTAR":"0.00007542400000","CLASSIFICATION_TYPE":"U","REV_AT_EPOCH":"3855","MEAN_MOTION":"15.08839538","MEAN_MOTION_DOT":"0.00000913","COUNTRY_CODE":"US","ECCENTRICITY":"0.00015410","MEAN_ANOMALY":"297.9764","MEAN_ELEMENT_THEORY":"SGP4","OBJECT_TYPE":"PAYLOAD","PERIAPSIS":"538.681"},{"REF_FRAME":"TEME","EPOCH":"2022-08-05T20:52:14.690208","SEMIMAJOR_AXIS":"6917.883","CENTER_NAME":"EARTH","FILE":"3530042","RCS_SIZE":"LARGE","APOAPSIS":"540.997","INCLINATION":"53.2183","RA_OF_ASC_NODE":"18.1240","MEAN_MOTION_DDOT":"0.0000000000000","EPHEMERIS_TYPE":"0","GP_ID":"209659150","TLE_LINE1":"1 50176U 21125W   22217.86961447  .00000822  00000-0  69713-4 0  9991","TIME_SYSTEM":"UTC","LAUNCH_DATE":"2021-12-18","NORAD_CAT_ID":"50176","ARG_OF_PERICENTER":"72.4911","ELEMENT_SET_NO":"999","MEAN_MOTION_DOT":"0.00000822","PERIAPSIS":"538.500","OBJECT_TYPE":"PAYLOAD","MEAN_ELEMENT_THEORY":"SGP4","MEAN_ANOMALY":"287.6279","ECCENTRICITY":"0.00018050","COUNTRY_CODE":"US","PERIOD":"95.438","TLE_LINE2":"2 50176  53.2183  18.1240 0001805  72.4911 287.6279 15.08839046 38609","OBJECT_ID":"2021-125W","OBJECT_NAME":"STARLINK-3293","DECAY_DATE":null,"SITE":"AFWTR","REV_AT_EPOCH":"3860","MEAN_MOTION":"15.08839046","CLASSIFICATION_TYPE":"U","BSTAR":"0.00006971300000"}];
